start=new Date('2021-09-10T00:00:00.000Z').valueOf();
sats=[{"PERIAPSIS":"545.970","SEMIMAJOR_AXIS":"6925.350","PERIOD":"95.592","TLE_LINE2":"2 45066  53.0550  77.1081 0001798  98.2293 261.8900 15.06399496 89277","MEAN_ELEMENT_THEORY":"SGP4","MEAN_MOTION_DOT":"0.00000853","OBJECT_TYPE":"PAYLOAD","ARG_OF_PERICENTER":"98.2293","ELEMENT_SET_NO":"999","REF_FRAME":"TEME","BSTAR":"0.00007618000000","OBJECT_NAME":"STARLINK-1145","CENTER_NAME":"EARTH","TLE_LINE1":"1 45066U 20006Y   21252.85489091  .00000853  00000-0  76180-4 0  9997","MEAN_MOTION_DDOT":"0.0000000000000","LAUNCH_DATE":"2020-01-29","RCS_SIZE":"LARGE","EPOCH":"2021-09-09T20:31:02.574624","COUNTRY_CODE":"US","INCLINATION":"53.0550","NORAD_CAT_ID":"45066","SITE":"AFETR","EPHEMERIS_TYPE":"0","DECAY_DATE":null,"REV_AT_EPOCH":"8927","CLASSIFICATION_TYPE":"U","FILE":"3111873","GP_ID":"184405938","APOAPSIS":"548.460","MEAN_ANOMALY":"261.8900","ECCENTRICITY":"0.00017980","RA_OF_ASC_NODE":"77.1081","MEAN_MOTION":"15.06399496","OBJECT_ID":"2020-006Y","TIME_SYSTEM":"UTC"},{"RCS_SIZE":"LARGE","COUNTRY_CODE":"US","EPOCH":"2021-09-09T20:52:16.670496","INCLINATION":"53.0540","NORAD_CAT_ID":"45067","SITE":"AFETR","DECAY_DATE":null,"EPHEMERIS_TYPE":"0","CLASSIFICATION_TYPE":"U","REV_AT_EPOCH":"8928","FILE":"3111873","GP_ID":"184406188","APOAPSIS":"548.485","MEAN_ANOMALY":"278.7736","ECCENTRICITY":"0.00018120","MEAN_MOTION":"15.06394664","RA_OF_ASC_NODE":"77.0377","TIME_SYSTEM":"UTC","OBJECT_ID":"2020-006Z","PERIAPSIS":"545.975","PERIOD":"95.592","SEMIMAJOR_AXIS":"6925.365","TLE_LINE2":"2 45067  53.0540  77.0377 0001812  81.3458 278.7736 15.06394664 89284","OBJECT_TYPE":"PAYLOAD","MEAN_MOTION_DOT":"0.00000879","MEAN_ELEMENT_THEORY":"SGP4","ARG_OF_PERICENTER":"81.3458","ELEMENT_SET_NO":"999","REF_FRAME":"TEME","BSTAR":"0.00007791400000","OBJECT_NAME":"STARLINK-1150","CENTER_NAME":"EARTH","TLE_LINE1":"1 45067U 20006Z   21252.86963739  .00000879  00000-0  77914-4 0  9999","MEAN_MOTION_DDOT":"0.0000000000000","LAUNCH_DATE":"2020-01-29"},{"PERIAPSIS":"546.157","SEMIMAJOR_AXIS":"6925.364","PERIOD":"95.592","TLE_LINE2":"2 45068  53.0547  77.0977 0001548 103.3724 256.7437 15.06394892 89271","MEAN_ELEMENT_THEORY":"SGP4","MEAN_MOTION_DOT":"0.00000237","OBJECT_TYPE":"PAYLOAD","ARG_OF_PERICENTER":"103.3724","ELEMENT_SET_NO":"999","REF_FRAME":"TEME","BSTAR":"0.00003483700000","OBJECT_NAME":"STARLINK-1161","CENTER_NAME":"EARTH","TLE_LINE1":"1 45068U 20006AA  21252.85860660  .00000237  00000-0  34837-4 0  9993","MEAN_MOTION_DDOT":"0.0000000000000","LAUNCH_DATE":"2020-01-29","RCS_SIZE":"LARGE","EPOCH":"2021-09-09T20:36:23.610240","COUNTRY_CODE":"US","INCLINATION":"53.0547","NORAD_CAT_ID":"45068","SITE":"AFETR","EPHEMERIS_TYPE":"0","DECAY_DATE":null,"REV_AT_EPOCH":"8927","CLASSIFICATION_TYPE":"U","FILE":"3111873","GP_ID":"184406940","MEAN_ANOMALY":"256.7437","APOAPSIS":"548.301","ECCENTRICITY":"0.00015480","RA_OF_ASC_NODE":"77.0977","MEAN_MOTION":"15.06394892","OBJECT_ID":"2020-006AA","TIME_SYSTEM":"UTC"},{"CLASSIFICATION_TYPE":"U","REV_AT_EPOCH":"8928","DECAY_DATE":null,"EPHEMERIS_TYPE":"0","SITE":"AFETR","NORAD_CAT_ID":"45071","INCLINATION":"53.0541","COUNTRY_CODE":"US","EPOCH":"2021-09-09T21:40:02.617248","RCS_SIZE":"LARGE","TIME_SYSTEM":"UTC","OBJECT_ID":"2020-006AD","RA_OF_ASC_NODE":"76.8919","MEAN_MOTION":"15.06404559","ECCENTRICITY":"0.00020510","APOAPSIS":"548.620","MEAN_ANOMALY":"268.9039","GP_ID":"184407180","FILE":"3111873","ELEMENT_SET_NO":"999","ARG_OF_PERICENTER":"91.2185","OBJECT_TYPE":"PAYLOAD","MEAN_ELEMENT_THEORY":"SGP4","MEAN_MOTION_DOT":"0.00002153","TLE_LINE2":"2 45071  53.0541  76.8919 0002051  91.2185 268.9039 15.06404559 89284","PERIOD":"95.592","SEMIMAJOR_AXIS":"6925.335","PERIAPSIS":"545.779","LAUNCH_DATE":"2020-01-29","MEAN_MOTION_DDOT":"0.0000000000000","TLE_LINE1":"1 45071U 20006AD  21252.90280807  .00002153  00000-0  16339-3 0  9997","CENTER_NAME":"EARTH","OBJECT_NAME":"STARLINK-1167","BSTAR":"0.00016339000000","REF_FRAME":"TEME"},{"SITE":"AFETR","NORAD_CAT_ID":"45072","CLASSIFICATION_TYPE":"U","REV_AT_EPOCH":"8927","EPHEMERIS_TYPE":"0","DECAY_DATE":null,"EPOCH":"2021-09-09T20:09:49.633920","COUNTRY_CODE":"US","RCS_SIZE":"LARGE","INCLINATION":"53.0552","MEAN_MOTION":"15.06394896","RA_OF_ASC_NODE":"77.1810","TIME_SYSTEM":"UTC","OBJECT_ID":"2020-006AE","GP_ID":"184406438","FILE":"3111873","ECCENTRICITY":"0.00019060","APOAPSIS":"548.549","MEAN_ANOMALY":"270.7599","ARG_OF_PERICENTER":"89.3609","MEAN_ELEMENT_THEORY":"SGP4","MEAN_MOTION_DOT":"0.00000996","OBJECT_TYPE":"PAYLOAD","ELEMENT_SET_NO":"999","PERIAPSIS":"545.909","TLE_LINE2":"2 45072  53.0552  77.1810 0001906  89.3609 270.7599 15.06394896 89271","PERIOD":"95.592","SEMIMAJOR_AXIS":"6925.364","MEAN_MOTION_DDOT":"0.0000000000000","LAUNCH_DATE":"2020-01-29","BSTAR":"0.00008577000000","REF_FRAME":"TEME","TLE_LINE1":"1 45072U 20006AE  21252.84015780  .00000996  00000-0  85770-4 0  9996","CENTER_NAME":"EARTH","OBJECT_NAME":"STARLINK-1168"},{"TLE_LINE2":"2 45073  53.0543  77.0521 0001853 100.7420 259.3778 15.06402819 89277","SEMIMAJOR_AXIS":"6925.340","PERIOD":"95.592","PERIAPSIS":"545.922","ELEMENT_SET_NO":"999","ARG_OF_PERICENTER":"100.7420","MEAN_ELEMENT_THEORY":"SGP4","MEAN_MOTION_DOT":"0.00001176","OBJECT_TYPE":"PAYLOAD","TLE_LINE1":"1 45073U 20006AF  21252.86594854  .00001176  00000-0  97829-4 0  9992","OBJECT_NAME":"STARLINK-1170","CENTER_NAME":"EARTH","BSTAR":"0.00009782900000","REF_FRAME":"TEME","LAUNCH_DATE":"2020-01-29","MEAN_MOTION_DDOT":"0.0000000000000","INCLINATION":"53.0543","EPOCH":"2021-09-09T20:46:57.953856","COUNTRY_CODE":"US","RCS_SIZE":"LARGE","CLASSIFICATION_TYPE":"U","REV_AT_EPOCH":"8927","EPHEMERIS_TYPE":"0","DECAY_DATE":null,"SITE":"AFETR","NORAD_CAT_ID":"45073","ECCENTRICITY":"0.00018530","MEAN_ANOMALY":"259.3778","APOAPSIS":"548.488","GP_ID":"184406688","FILE":"3111873","OBJECT_ID":"2020-006AF","TIME_SYSTEM":"UTC","RA_OF_ASC_NODE":"77.0521","MEAN_MOTION":"15.06402819"},{"LAUNCH_DATE":"2020-01-29","MEAN_MOTION_DDOT":"0.0000000000000","CENTER_NAME":"EARTH","OBJECT_NAME":"STARLINK-1172","TLE_LINE1":"1 45074U 20006AG  21252.85120396  .00000377  00000-0  44249-4 0  9998","REF_FRAME":"TEME","BSTAR":"0.00004424900000","ELEMENT_SET_NO":"999","MEAN_MOTION_DOT":"0.00000377","MEAN_ELEMENT_THEORY":"SGP4","OBJECT_TYPE":"PAYLOAD","ARG_OF_PERICENTER":"90.3172","SEMIMAJOR_AXIS":"6925.342","PERIOD":"95.592","TLE_LINE2":"2 45074  53.0553  77.1270 0001972  90.3172 269.8043 15.06402232 89271","PERIAPSIS":"545.841","OBJECT_ID":"2020-006AG","TIME_SYSTEM":"UTC","RA_OF_ASC_NODE":"77.1270","MEAN_MOTION":"15.06402232","APOAPSIS":"548.572","MEAN_ANOMALY":"269.8043","ECCENTRICITY":"0.00019720","FILE":"3111873","GP_ID":"184407440","EPHEMERIS_TYPE":"0","DECAY_DATE":null,"REV_AT_EPOCH":"8927","CLASSIFICATION_TYPE":"U","NORAD_CAT_ID":"45074","SITE":"AFETR","INCLINATION":"53.0553","RCS_SIZE":"LARGE","EPOCH":"2021-09-09T20:25:44.022144","COUNTRY_CODE":"US"},{"FILE":"3111873","GP_ID":"184407680","MEAN_ANOMALY":"266.4660","APOAPSIS":"548.499","ECCENTRICITY":"0.00018660","MEAN_MOTION":"15.06402244","RA_OF_ASC_NODE":"77.8706","OBJECT_ID":"2020-006AH","TIME_SYSTEM":"UTC","RCS_SIZE":"LARGE","COUNTRY_CODE":"US","EPOCH":"2021-09-09T16:26:52.879200","INCLINATION":"53.0555","NORAD_CAT_ID":"45075","SITE":"AFETR","DECAY_DATE":null,"EPHEMERIS_TYPE":"0","REV_AT_EPOCH":"8925","CLASSIFICATION_TYPE":"U","REF_FRAME":"TEME","BSTAR":"0.00008276800000","CENTER_NAME":"EARTH","OBJECT_NAME":"STARLINK-1174","TLE_LINE1":"1 45075U 20006AH  21252.68533425  .00000951  00000-0  82768-4 0  9997","MEAN_MOTION_DDOT":"0.0000000000000","LAUNCH_DATE":"2020-01-29","PERIAPSIS":"545.914","SEMIMAJOR_AXIS":"6925.342","PERIOD":"95.592","TLE_LINE2":"2 45075  53.0555  77.8706 0001866  93.6542 266.4660 15.06402244 89253","OBJECT_TYPE":"PAYLOAD","MEAN_ELEMENT_THEORY":"SGP4","MEAN_MOTION_DOT":"0.00000951","ARG_OF_PERICENTER":"93.6542","ELEMENT_SET_NO":"999"},{"APOAPSIS":"548.531","MEAN_ANOMALY":"264.7576","ECCENTRICITY":"0.00018780","FILE":"3111873","GP_ID":"184405939","OBJECT_ID":"2020-006AJ","TIME_SYSTEM":"UTC","RA_OF_ASC_NODE":"76.9398","MEAN_MOTION":"15.06394456","INCLINATION":"53.0545","RCS_SIZE":"LARGE","COUNTRY_CODE":"US","EPOCH":"2021-09-09T21:24:07.977600","DECAY_DATE":null,"EPHEMERIS_TYPE":"0","CLASSIFICATION_TYPE":"U","REV_AT_EPOCH":"8928","NORAD_CAT_ID":"45076","SITE":"AFETR","OBJECT_NAME":"STARLINK-1180","CENTER_NAME":"EARTH","TLE_LINE1":"1 45076U 20006AJ  21252.89175900 -.00000402  00000-0 -80587-5 0  9992","REF_FRAME":"TEME","BSTAR":"-0.00000805870000","LAUNCH_DATE":"2020-01-29","MEAN_MOTION_DDOT":"0.0000000000000","PERIOD":"95.592","SEMIMAJOR_AXIS":"6925.366","TLE_LINE2":"2 45076  53.0545  76.9398 0001878  95.3628 264.7576 15.06394456 89282","PERIAPSIS":"545.930","ELEMENT_SET_NO":"999","OBJECT_TYPE":"PAYLOAD","MEAN_MOTION_DOT":"-0.00000402","MEAN_ELEMENT_THEORY":"SGP4","ARG_OF_PERICENTER":"95.3628"},{"SEMIMAJOR_AXIS":"6824.578","PERIOD":"93.513","TLE_LINE2":"2 45077  53.0533  67.9600 0001073 102.9688 257.1435 15.39887868 89408","PERIAPSIS":"445.710","ELEMENT_SET_NO":"999","OBJECT_TYPE":"PAYLOAD","MEAN_ELEMENT_THEORY":"SGP4","MEAN_MOTION_DOT":"0.00003357","ARG_OF_PERICENTER":"102.9688","OBJECT_NAME":"STARLINK-1182","CENTER_NAME":"EARTH","TLE_LINE1":"1 45077U 20006AK  21252.84210605  .00003357  00000-0  93076-4 0  9996","REF_FRAME":"TEME","BSTAR":"0.00009307600000","LAUNCH_DATE":"2020-01-29","MEAN_MOTION_DDOT":"0.0000000000000","INCLINATION":"53.0533","RCS_SIZE":"LARGE","COUNTRY_CODE":"US","EPOCH":"2021-09-09T20:12:37.962720","DECAY_DATE":null,"EPHEMERIS_TYPE":"0","REV_AT_EPOCH":"8940","CLASSIFICATION_TYPE":"U","NORAD_CAT_ID":"45077","SITE":"AFETR","APOAPSIS":"447.175","MEAN_ANOMALY":"257.1435","ECCENTRICITY":"0.00010730","FILE":"3111873","GP_ID":"184406189","TIME_SYSTEM":"UTC","OBJECT_ID":"2020-006AK","RA_OF_ASC_NODE":"67.9600","MEAN_MOTION":"15.39887868"}];
